[Satellite]
VERSION=1.1
NAME=FENGYUN 4A
NICKNAME=FENGYUN 4A
TLE1=1 41882U 16077A   17186.27741079 -.00000335  00000-0  00000-0 0  9996
TLE2=2 41882   0.0487 144.9693 0008933 296.9801  46.0985  1.00271699  2209
